[{"OBJECT_NAME":"GAOFEN-2","OBJECT_ID":"2014-049A","EPOCH":"2026-03-15T07:42:54.667584","MEAN_MOTION":14.80779915,"ECCENTRICITY":0.00074766,"INCLINATION":98.0215,"RA_OF_ASC_NODE":138.5837,"ARG_OF_PERICENTER":167.0284,"MEAN_ANOMALY":193.1121,"EPHEMERIS_TYPE":0,"CLASSIFICATION_TYPE":"U","NORAD_CAT_ID":40118,"ELEMENT_SET_NO":999,"REV_AT_EPOCH":62534,"BSTAR":8.6352713e-5,"MEAN_MOTION_DOT":6.12e-6,"MEAN_MOTION_DDOT":0},{"OBJECT_NAME":"YAOGAN-21","OBJECT_ID":"2014-053A","EPOCH":"2026-03-15T07:24:15.763392","MEAN_MOTION":15.25031864,"ECCENTRICITY":0.00099999,"INCLINATION":97.1614,"RA_OF_ASC_NODE":118.6071,"ARG_OF_PERICENTER":70.5275,"MEAN_ANOMALY":289.7043,"EPHEMERIS_TYPE":0,"CLASSIFICATION_TYPE":"U","NORAD_CAT_ID":40143,"ELEMENT_SET_NO":999,"REV_AT_EPOCH":64064,"BSTAR":0.00048648751,"MEAN_MOTION_DOT":0.00012108,"MEAN_MOTION_DDOT":0},{"OBJECT_NAME":"YAOGAN-22","OBJECT_ID":"2014-063A","EPOCH":"2026-03-15T06:18:07.056288","MEAN_MOTION":13.1552762,"ECCENTRICITY":0.00065829,"INCLINATION":100.7551,"RA_OF_ASC_NODE":224.0304,"ARG_OF_PERICENTER":46.1787,"MEAN_ANOMALY":313.9868,"EPHEMERIS_TYPE":0,"CLASSIFICATION_TYPE":"U","NORAD_CAT_ID":40275,"ELEMENT_SET_NO":999,"REV_AT_EPOCH":54746,"BSTAR":8.7630738e-5,"MEAN_MOTION_DOT":-1.4e-7,"MEAN_MOTION_DDOT":0},{"OBJECT_NAME":"ASNARO","OBJECT_ID":"2014-070A","EPOCH":"2026-03-15T06:10:16.933152","MEAN_MOTION":15.19447994,"ECCENTRICITY":0.00066684,"INCLINATION":97.3509,"RA_OF_ASC_NODE":152.8749,"ARG_OF_PERICENTER":140.0111,"MEAN_ANOMALY":220.1616,"EPHEMERIS_TYPE":0,"CLASSIFICATION_TYPE":"U","NORAD_CAT_ID":40298,"ELEMENT_SET_NO":999,"REV_AT_EPOCH":62974,"BSTAR":0.00066689545,"MEAN_MOTION_DOT":0.00014093,"MEAN_MOTION_DDOT":0},{"OBJECT_NAME":"YAOGAN-24","OBJECT_ID":"2014-072A","EPOCH":"2026-03-15T06:27:06.561216","MEAN_MOTION":14.76243239,"ECCENTRICITY":0.00127197,"INCLINATION":98.131,"RA_OF_ASC_NODE":210.8989,"ARG_OF_PERICENTER":199.5971,"MEAN_ANOMALY":160.4751,"EPHEMERIS_TYPE":0,"CLASSIFICATION_TYPE":"U","NORAD_CAT_ID":40310,"ELEMENT_SET_NO":999,"REV_AT_EPOCH":60986,"BSTAR":0.00016259911,"MEAN_MOTION_DOT":1.074e-5,"MEAN_MOTION_DDOT":0},{"OBJECT_NAME":"CBERS 4","OBJECT_ID":"2014-079A","EPOCH":"2026-03-15T06:56:52.385280","MEAN_MOTION":14.35516845,"ECCENTRICITY":7.015e-5,"INCLINATION":98.3475,"RA_OF_ASC_NODE":134.1221,"ARG_OF_PERICENTER":39.3594,"MEAN_ANOMALY":320.7644,"EPHEMERIS_TYPE":0,"CLASSIFICATION_TYPE":"U","NORAD_CAT_ID":40336,"ELEMENT_SET_NO":999,"REV_AT_EPOCH":59048,"BSTAR":6.8594274e-5,"MEAN_MOTION_DOT":1.55e-6,"MEAN_MOTION_DDOT":0},{"OBJECT_NAME":"YAOGAN-26","OBJECT_ID":"2014-088A","EPOCH":"2026-03-15T07:31:37.170624","MEAN_MOTION":15.43515829,"ECCENTRICITY":0.00064281,"INCLINATION":97.0668,"RA_OF_ASC_NODE":76.9743,"ARG_OF_PERICENTER":52.6277,"MEAN_ANOMALY":307.5557,"EPHEMERIS_TYPE":0,"CLASSIFICATION_TYPE":"U","NORAD_CAT_ID":40362,"ELEMENT_SET_NO":999,"REV_AT_EPOCH":62320,"BSTAR":0.00074653002,"MEAN_MOTION_DOT":0.00033513,"MEAN_MOTION_DDOT":0},{"OBJECT_NAME":"SMAP","OBJECT_ID":"2015-003A","EPOCH":"2026-03-15T06:26:03.973056","MEAN_MOTION":14.6334683,"ECCENTRICITY":0.00015706,"INCLINATION":98.1311,"RA_OF_ASC_NODE":82.6788,"ARG_OF_PERICENTER":109.7793,"MEAN_ANOMALY":250.3578,"EPHEMERIS_TYPE":0,"CLASSIFICATION_TYPE":"U","NORAD_CAT_ID":40376,"ELEMENT_SET_NO":999,"REV_AT_EPOCH":59388,"BSTAR":0.00011747208,"MEAN_MOTION_DOT":5.6e-6,"MEAN_MOTION_DDOT":0},{"OBJECT_NAME":"KOMPSAT-3A","OBJECT_ID":"2015-014A","EPOCH":"2026-03-15T06:42:36.163008","MEAN_MOTION":15.49038546,"ECCENTRICITY":0.00639226,"INCLINATION":97.6873,"RA_OF_ASC_NODE":59.1379,"ARG_OF_PERICENTER":157.3743,"MEAN_ANOMALY":203.0348,"EPHEMERIS_TYPE":0,"CLASSIFICATION_TYPE":"U","NORAD_CAT_ID":40536,"ELEMENT_SET_NO":999,"REV_AT_EPOCH":60725,"BSTAR":0.00044278796,"MEAN_MOTION_DOT":0.00026005,"MEAN_MOTION_DDOT":0},{"OBJECT_NAME":"SENTINEL-2A","OBJECT_ID":"2015-028A","EPOCH":"2026-03-15T07:10:04.649088","MEAN_MOTION":14.3081549,"ECCENTRICITY":0.00012475,"INCLINATION":98.5646,"RA_OF_ASC_NODE":150.5096,"ARG_OF_PERICENTER":99.4621,"MEAN_ANOMALY":260.6703,"EPHEMERIS_TYPE":0,"CLASSIFICATION_TYPE":"U","NORAD_CAT_ID":40697,"ELEMENT_SET_NO":999,"REV_AT_EPOCH":56030,"BSTAR":4.5161494e-5,"MEAN_MOTION_DOT":7.5e-7,"MEAN_MOTION_DDOT":0},{"OBJECT_NAME":"GAOFEN-8","OBJECT_ID":"2015-030A","EPOCH":"2026-03-15T07:50:11.931936","MEAN_MOTION":15.42666654,"ECCENTRICITY":0.00097457,"INCLINATION":97.6937,"RA_OF_ASC_NODE":262.2814,"ARG_OF_PERICENTER":167.6335,"MEAN_ANOMALY":192.5153,"EPHEMERIS_TYPE":0,"CLASSIFICATION_TYPE":"U","NORAD_CAT_ID":40701,"ELEMENT_SET_NO":999,"REV_AT_EPOCH":59696,"BSTAR":0.00054220678,"MEAN_MOTION_DOT":0.00023619,"MEAN_MOTION_DDOT":0},{"OBJECT_NAME":"CARBONITE 1 (CBNT-1)","OBJECT_ID":"2015-032D","EPOCH":"2026-03-15T06:55:09.458688","MEAN_MOTION":14.83246299,"ECCENTRICITY":0.00133662,"INCLINATION":97.6469,"RA_OF_ASC_NODE":256.3178,"ARG_OF_PERICENTER":240.4916,"MEAN_ANOMALY":119.4966,"EPHEMERIS_TYPE":0,"CLASSIFICATION_TYPE":"U","NORAD_CAT_ID":40718,"ELEMENT_SET_NO":999,"REV_AT_EPOCH":57542,"BSTAR":0.00013355038,"MEAN_MOTION_DOT":1.042e-5,"MEAN_MOTION_DDOT":0},{"OBJECT_NAME":"YAOGAN-27","OBJECT_ID":"2015-040A","EPOCH":"2026-03-15T07:04:32.416896","MEAN_MOTION":13.16065649,"ECCENTRICITY":0.00088999,"INCLINATION":100.1112,"RA_OF_ASC_NODE":64.7747,"ARG_OF_PERICENTER":72.0698,"MEAN_ANOMALY":288.1386,"EPHEMERIS_TYPE":0,"CLASSIFICATION_TYPE":"U","NORAD_CAT_ID":40878,"ELEMENT_SET_NO":999,"REV_AT_EPOCH":50531,"BSTAR":-0.00041443072,"MEAN_MOTION_DOT":-2.0e-6,"MEAN_MOTION_DDOT":0},{"OBJECT_NAME":"GAOFEN-9 01","OBJECT_ID":"2015-047A","EPOCH":"2026-03-15T06:18:45.709920","MEAN_MOTION":14.82696578,"ECCENTRICITY":0.00289645,"INCLINATION":97.6404,"RA_OF_ASC_NODE":114.1801,"ARG_OF_PERICENTER":88.5449,"MEAN_ANOMALY":271.9083,"EPHEMERIS_TYPE":0,"CLASSIFICATION_TYPE":"U","NORAD_CAT_ID":40894,"ELEMENT_SET_NO":999,"REV_AT_EPOCH":56627,"BSTAR":0.00015076761,"MEAN_MOTION_DOT":1.174e-5,"MEAN_MOTION_DDOT":0},{"OBJECT_NAME":"YAOGAN-28","OBJECT_ID":"2015-064A","EPOCH":"2026-03-15T06:35:19.924224","MEAN_MOTION":15.26106124,"ECCENTRICITY":0.00116084,"INCLINATION":97.2904,"RA_OF_ASC_NODE":214.6207,"ARG_OF_PERICENTER":157.5039,"MEAN_ANOMALY":202.6711,"EPHEMERIS_TYPE":0,"CLASSIFICATION_TYPE":"U","NORAD_CAT_ID":41026,"ELEMENT_SET_NO":999,"REV_AT_EPOCH":57635,"BSTAR":0.00035382644,"MEAN_MOTION_DOT":9.075e-5,"MEAN_MOTION_DDOT":0},{"OBJECT_NAME":"YAOGAN-29","OBJECT_ID":"2015-069A","EPOCH":"2026-03-15T07:51:08.358912","MEAN_MOTION":14.83003328,"ECCENTRICITY":0.00015997,"INCLINATION":98.0144,"RA_OF_ASC_NODE":102.7722,"ARG_OF_PERICENTER":27.1509,"MEAN_ANOMALY":332.9788,"EPHEMERIS_TYPE":0,"CLASSIFICATION_TYPE":"U","NORAD_CAT_ID":41038,"ELEMENT_SET_NO":999,"REV_AT_EPOCH":55671,"BSTAR":7.8686024e-5,"MEAN_MOTION_DOT":5.85e-6,"MEAN_MOTION_DDOT":0},{"OBJECT_NAME":"KENT RIDGE 1","OBJECT_ID":"2015-077B","EPOCH":"2026-03-15T02:34:36.066432","MEAN_MOTION":15.22501966,"ECCENTRICITY":0.00085312,"INCLINATION":14.979,"RA_OF_ASC_NODE":245.3339,"ARG_OF_PERICENTER":352.5313,"MEAN_ANOMALY":7.4882,"EPHEMERIS_TYPE":0,"CLASSIFICATION_TYPE":"U","NORAD_CAT_ID":41167,"ELEMENT_SET_NO":999,"REV_AT_EPOCH":56673,"BSTAR":0.00018781413,"MEAN_MOTION_DOT":5.25e-5,"MEAN_MOTION_DDOT":0},{"OBJECT_NAME":"GAOFEN-4","OBJECT_ID":"2015-083A","EPOCH":"2026-03-13T12:28:23.064096","MEAN_MOTION":1.00269807,"ECCENTRICITY":0.00039265,"INCLINATION":0.4018,"RA_OF_ASC_NODE":83.7567,"ARG_OF_PERICENTER":77.9435,"MEAN_ANOMALY":302.2136,"EPHEMERIS_TYPE":0,"CLASSIFICATION_TYPE":"U","NORAD_CAT_ID":41194,"ELEMENT_SET_NO":999,"REV_AT_EPOCH":3757,"BSTAR":0,"MEAN_MOTION_DOT":-3.34e-6,"MEAN_MOTION_DDOT":0},{"OBJECT_NAME":"JASON-3","OBJECT_ID":"2016-002A","EPOCH":"2026-03-15T06:07:17.887296","MEAN_MOTION":12.87626499,"ECCENTRICITY":0.00077128,"INCLINATION":66.0436,"RA_OF_ASC_NODE":323.3217,"ARG_OF_PERICENTER":277.1197,"MEAN_ANOMALY":82.8945,"EPHEMERIS_TYPE":0,"CLASSIFICATION_TYPE":"U","NORAD_CAT_ID":41240,"ELEMENT_SET_NO":999,"REV_AT_EPOCH":47515,"BSTAR":0.00015427152,"MEAN_MOTION_DOT":-2.3e-7,"MEAN_MOTION_DDOT":0},{"OBJECT_NAME":"SENTINEL-3A","OBJECT_ID":"2016-011A","EPOCH":"2026-03-15T07:30:08.105184","MEAN_MOTION":14.26736136,"ECCENTRICITY":0.00012489,"INCLINATION":98.6218,"RA_OF_ASC_NODE":143.0169,"ARG_OF_PERICENTER":96.3508,"MEAN_ANOMALY":263.7815,"EPHEMERIS_TYPE":0,"CLASSIFICATION_TYPE":"U","NORAD_CAT_ID":41335,"ELEMENT_SET_NO":999,"REV_AT_EPOCH":52467,"BSTAR":6.8407143e-5,"MEAN_MOTION_DOT":1.22e-6,"MEAN_MOTION_DDOT":0},{"OBJECT_NAME":"ZIYUAN 3-02 (ZY 3-02)","OBJECT_ID":"2016-033A","EPOCH":"2026-03-15T06:20:25.997856","MEAN_MOTION":15.21644291,"ECCENTRICITY":0.00109066,"INCLINATION":97.3896,"RA_OF_ASC_NODE":151.8196,"ARG_OF_PERICENTER":276.4904,"MEAN_ANOMALY":83.509,"EPHEMERIS_TYPE":0,"CLASSIFICATION_TYPE":"U","NORAD_CAT_ID":41556,"ELEMENT_SET_NO":999,"REV_AT_EPOCH":54370,"BSTAR":0.00033390187,"MEAN_MOTION_DOT":7.489e-5,"MEAN_MOTION_DDOT":0},{"OBJECT_NAME":"CARTOSAT-2C","OBJECT_ID":"2016-040A","EPOCH":"2026-03-15T06:28:43.283424","MEAN_MOTION":15.19284148,"ECCENTRICITY":0.00106058,"INCLINATION":97.4604,"RA_OF_ASC_NODE":135.4862,"ARG_OF_PERICENTER":104.1808,"MEAN_ANOMALY":256.0605,"EPHEMERIS_TYPE":0,"CLASSIFICATION_TYPE":"U","NORAD_CAT_ID":41599,"ELEMENT_SET_NO":999,"REV_AT_EPOCH":53945,"BSTAR":0.00019757084,"MEAN_MOTION_DOT":4.105e-5,"MEAN_MOTION_DDOT":0},{"OBJECT_NAME":"SKYSAT-C1","OBJECT_ID":"2016-040C","EPOCH":"2026-03-15T01:08:55.474656","MEAN_MOTION":15.34636514,"ECCENTRICITY":0.00031123,"INCLINATION":96.9695,"RA_OF_ASC_NODE":110.921,"ARG_OF_PERICENTER":42.5746,"MEAN_ANOMALY":317.5739,"EPHEMERIS_TYPE":0,"CLASSIFICATION_TYPE":"U","NORAD_CAT_ID":41601,"ELEMENT_SET_NO":999,"REV_AT_EPOCH":54342,"BSTAR":0.00038093542,"MEAN_MOTION_DOT":0.00012721,"MEAN_MOTION_DDOT":0}]
